NORAD_CAT_ID,OBJECT_NAME,OBJECT_TYPE,EPOCH,MEAN_MOTION,ECCENTRICITY,INCLINATION,RA_OF_ASC_NODE,ARG_OF_PERICENTER,MEAN_ANOMALY,BSTAR,MEAN_MOTION_DOT,MEAN_MOTION_DDOT,TLE_LINE0,TLE_LINE1,TLE_LINE2,SEMIMAJOR_AXIS,PERIOD,APOGEE,PERIGEE,DECAYED
51988.0,STARLINK-3640,PAYLOAD,2023-05-18 05:45:47,15.08842323,0.0001191,53.2165,327.0301,92.0642,268.0487,0.00012053,1.631e-05,0.0,0 STARLINK-3640,1 51988U 22025AJ  23138.24013742  .00001631  00000-0  12053-3 0  9997,2 51988  53.2165 327.0301 0001191  92.0642 268.0487 15.08842323 66100,6917.873,95.437,540.562,538.914,0.0
51988.0,STARLINK-3640,PAYLOAD,2023-05-18 18:28:53,15.08841281,0.0001137,53.2165,324.6509,86.988,273.1242,0.00012745,1.741e-05,0.0,0 STARLINK-3640,1 51988U 22025AJ  23138.77005937  .00001741  00000-0  12745-3 0  9992,2 51988  53.2165 324.6509 0001137  86.9880 273.1242 15.08841281 66185,6917.876,95.437,540.528,538.955,0.0
51988.0,STARLINK-3640,PAYLOAD,2023-05-19 05:36:35,15.08844054,0.000106,53.2165,322.5693,86.6075,273.5039,0.00010849,1.439e-05,0.0,0 STARLINK-3640,1 51988U 22025AJ  23139.23373844  .00001439  00000-0  10849-3 0  9996,2 51988  53.2165 322.5693 0001060  86.6075 273.5039 15.08844054 67364,6917.868,95.437,540.466,539.0,0.0
51988.0,STARLINK-3640,PAYLOAD,2023-05-19 18:19:40,15.08844964,0.0001085,53.2165,320.1905,87.3338,272.7779,0.00018678,2.686e-05,0.0,0 STARLINK-3640,1 51988U 22025AJ  23139.76365881  .00002686  00000-0  18678-3 0  9999,2 51988  53.2165 320.1905 0001085  87.3338 272.7779 15.08844964 66339,6917.865,95.437,540.481,538.98,0.0
51988.0,STARLINK-3640,PAYLOAD,2023-05-20 05:27:22,15.08831675,0.0001225,53.2161,318.1097,86.3217,273.7915,0.00075541,0.00011752,0.0,0 STARLINK-3640,1 51988U 22025AJ  23140.22734937  .00011752  00000-0  75541-3 0  9990,2 51988  53.2161 318.1097 0001225  86.3217 273.7915 15.08831675 67514,6917.906,95.438,540.618,538.923,0.0
51988.0,STARLINK-3640,PAYLOAD,2023-05-20 18:10:26,15.08853332,0.0001181,53.2162,315.7292,93.3937,266.7191,0.00025662,3.8e-05,0.0,0 STARLINK-3640,1 51988U 22025AJ  23140.75725283  .00003800  00000-0  25662-3 0  9996,2 51988  53.2162 315.7292 0001181  93.3937 266.7191 15.08853332 67593,6917.84,95.437,540.522,538.888,0.0
51988.0,STARLINK-3640,PAYLOAD,2023-05-21 18:01:14,15.08832971,0.0001056,53.2167,311.2682,103.0877,257.0233,-3.3324e-05,-8.18e-06,0.0,0 STARLINK-3640,1 51988U 22025AJ  23141.75086488 -.00000818  00000-0 -33324-4 0  9997,2 51988  53.2167 311.2682 0001056 103.0877 257.0233 15.08832971 67748,6917.902,95.438,540.497,539.036,0.0
51988.0,STARLINK-3640,PAYLOAD,2023-05-21 21:12:01,15.08831023,0.0001031,53.2167,310.6738,104.45,255.6607,-4.2797e-05,-9.69e-06,0.0,0 STARLINK-3640,1 51988U 22025AJ  23141.88334680 -.00000969  00000-0 -42797-4 0  9992,2 51988  53.2167 310.6738 0001031 104.4500 255.6607 15.08831023 66659,6917.908,95.438,540.486,539.06,0.0
51988.0,STARLINK-3640,PAYLOAD,2023-05-22 11:30:28,15.08845957,9.35e-05,53.2164,307.9994,100.1981,259.9117,0.00020978,3.053e-05,0.0,0 STARLINK-3640,1 51988U 22025AJ  23142.47950137  .00003053  00000-0  20978-3 0  9990,2 51988  53.2164 307.9994 0000935 100.1981 259.9117 15.08845957 67854,6917.862,95.437,540.374,539.08,0.0
51988.0,STARLINK-3640,PAYLOAD,2023-05-22 17:52:01,15.08855051,9.54e-05,53.2164,306.8096,102.5583,257.5516,0.00046044,7.051e-05,0.0,0 STARLINK-3640,1 51988U 22025AJ  23142.74445834  .00007051  00000-0  46044-3 0  9997,2 51988  53.2164 306.8096 0000954 102.5583 257.5516 15.08855051 66784,6917.834,95.437,540.359,539.039,0.0
51988.0,STARLINK-3640,PAYLOAD,2023-05-23 09:45:53,15.08843209,0.0001382,53.2164,303.837,103.8121,256.3025,0.0002523,3.73e-05,0.0,0 STARLINK-3640,1 51988U 22025AJ  23143.40686358  .00003730  00000-0  25230-3 0  9993,2 51988  53.2164 303.8370 0001382 103.8121 256.3025 15.08843209 67992,6917.871,95.437,540.692,538.78,0.0
51988.0,STARLINK-3640,PAYLOAD,2023-05-23 17:42:48,15.08836469,9.18e-05,53.2163,302.3499,94.8351,265.2746,0.00010048,1.312e-05,0.0,0 STARLINK-3640,1 51988U 22025AJ  23143.73806685  .00001312  00000-0  10048-3 0  9991,2 51988  53.2163 302.3499 0000918  94.8351 265.2746 15.08836469 68041,6917.891,95.438,540.391,539.121,0.0
51988.0,STARLINK-3640,PAYLOAD,2023-05-24 15:58:12,15.08842853,0.0001141,53.2181,298.1891,107.0211,253.0906,9.754e-05,1.265e-05,0.0,0 STARLINK-3640,1 51988U 22025AJ  23144.66542521  .00001265  00000-0  97540-4 0  9990,2 51988  53.2181 298.1891 0001141 107.0211 253.0906 15.08842853 67079,6917.872,95.437,540.526,538.947,0.0
51988.0,STARLINK-3640,PAYLOAD,2023-05-25 14:13:37,15.08838042,9.02e-05,53.2166,294.0244,86.4682,273.6413,0.00018391,2.64e-05,0.0,0 STARLINK-3640,1 51988U 22025AJ  23145.59278965  .00002640  00000-0  18391-3 0  9995,2 51988  53.2166 294.0244 0000902  86.4682 273.6413 15.08838042 67217,6917.886,95.438,540.375,539.127,0.0
51988.0,STARLINK-3640,PAYLOAD,2023-05-25 17:24:23,15.08842477,9.3e-05,53.2166,293.4297,85.5922,274.5176,0.00022962,3.369e-05,0.0,0 STARLINK-3640,1 51988U 22025AJ  23145.72526786  .00003369  00000-0  22962-3 0  9995,2 51988  53.2166 293.4297 0000930  85.5922 274.5176 15.08842477 68344,6917.873,95.437,540.381,539.094,0.0
51988.0,STARLINK-3640,PAYLOAD,2023-05-25 18:59:46,15.08842777,9.34e-05,53.2166,293.1324,85.3016,274.8083,0.00022781,3.34e-05,0.0,0 STARLINK-3640,1 51988U 22025AJ  23145.79150775  .00003340  00000-0  22781-3 0  9991,2 51988  53.2166 293.1324 0000934  85.3016 274.8083 15.08842777 67249,6917.872,95.437,540.383,539.091,0.0
51988.0,STARLINK-3640,PAYLOAD,2023-05-26 14:04:23,15.08840136,9.84e-05,53.2162,289.5649,84.7246,275.3858,7.102e-05,8.43e-06,0.0,0 STARLINK-3640,1 51988U 22025AJ  23146.58638876  .00000843  00000-0  71020-4 0  9998,2 51988  53.2162 289.5649 0000984  84.7246 275.3858 15.08840136 67363,6917.88,95.438,540.426,539.064,0.0
51988.0,STARLINK-3640,PAYLOAD,2023-05-26 17:15:10,15.08843237,9.92e-05,53.2165,288.9701,83.2954,276.8151,9.2361e-05,1.183e-05,0.0,0 STARLINK-3640,1 51988U 22025AJ  23146.71886789  .00001183  00000-0  92361-4 0  9990,2 51988  53.2165 288.9701 0000992  83.2954 276.8151 15.08843237 67386,6917.87,95.437,540.422,539.049,0.0
51988.0,STARLINK-3640,PAYLOAD,2023-05-27 02:47:29,15.08840976,0.0001038,53.2163,287.1843,77.0007,283.1101,2.3362e-05,8.4e-07,0.0,0 STARLINK-3640,1 51988U 22025AJ  23147.11630923  .00000084  00000-0  23362-4 0  9996,2 51988  53.2163 287.1843 0001038  77.0007 283.1101 15.08840976 68557,6917.877,95.437,540.46,539.024,0.0
51988.0,STARLINK-3640,PAYLOAD,2023-05-27 15:30:34,15.0884276,9.8e-05,53.2172,284.8039,84.9115,275.1989,7.1722e-05,8.54e-06,0.0,0 STARLINK-3640,1 51988U 22025AJ  23147.64622923  .00000854  00000-0  71722-4 0  9993,2 51988  53.2172 284.8039 0000980  84.9115 275.1989 15.08842760 67524,6917.872,95.437,540.415,539.059,0.0
51988.0,STARLINK-3640,PAYLOAD,2023-05-28 02:38:16,15.08841983,9.68e-05,53.217,282.7225,82.6077,277.5025,8.0718e-05,9.97e-06,0.0,0 STARLINK-3640,1 51988U 22025AJ  23148.10990903  .00000997  00000-0  80718-4 0  9994,2 51988  53.2170 282.7225 0000968  82.6077 277.5025 15.08841983 67594,6917.874,95.437,540.409,539.07,0.0
51988.0,STARLINK-3640,PAYLOAD,2023-05-28 15:21:20,15.08845879,0.0001002,53.2171,280.3434,83.4971,276.6135,0.00012225,1.659e-05,0.0,0 STARLINK-3640,1 51988U 22025AJ  23148.63982572  .00001659  00000-0  12225-3 0  9998,2 51988  53.2171 280.3434 0001002  83.4971 276.6135 15.08845879 68785,6917.862,95.437,540.421,539.034,0.0
51988.0,STARLINK-3640,PAYLOAD,2023-05-29 13:36:45,15.08840573,9.96e-05,53.2173,276.1797,85.4128,274.6977,6.1477e-05,6.91e-06,0.0,0 STARLINK-3640,1 51988U 22025AJ  23149.56718911  .00000691  00000-0  61477-4 0  9994,2 51988  53.2173 276.1797 0000996  85.4128 274.6977 15.08840573 67810,6917.879,95.438,540.433,539.055,0.0
51988.0,STARLINK-3640,PAYLOAD,2023-05-29 15:12:08,15.08840817,0.0001003,53.2175,275.8827,85.7305,274.3802,6.855e-05,8.03e-06,0.0,0 STARLINK-3640,1 51988U 22025AJ  23149.63342863  .00000803  00000-0  68550-4 0  9995,2 51988  53.2175 275.8827 0001003  85.7305 274.3802 15.08840817 68931,6917.878,95.438,540.437,539.049,0.0
51988.0,STARLINK-3640,PAYLOAD,2023-05-29 18:22:54,15.08841798,0.0001009,53.2176,275.2874,87.6529,272.4579,7.2909e-05,8.73e-06,0.0,0 STARLINK-3640,1 51988U 22025AJ  23149.76590753  .00000873  00000-0  72909-4 0  9992,2 51988  53.2176 275.2874 0001009  87.6529 272.4579 15.08841798 67841,6917.875,95.437,540.438,539.042,0.0
51988.0,STARLINK-3640,PAYLOAD,2023-05-30 11:52:09,15.08838662,9.9e-05,53.2168,272.0152,106.5287,253.5814,1.6842e-05,-2e-07,0.0,0 STARLINK-3640,1 51988U 22025AJ  23150.49455045 -.00000020  00000-0  16842-4 0  9997,2 51988  53.2168 272.0152 0000990 106.5287 253.5814 15.08838662 67956,6917.884,95.438,540.434,539.065,0.0
51988.0,STARLINK-3640,PAYLOAD,2023-05-30 15:02:55,15.08845519,0.0001103,53.2173,271.4206,116.1094,244.0011,-3.2735e-05,-8.09e-06,0.0,0 STARLINK-3640,1 51988U 22025AJ  23150.62702726 -.00000809  00000-0 -32735-4 0  9998,2 51988  53.2173 271.4206 0001103 116.1094 244.0011 15.08845519 67970,6917.864,95.437,540.492,538.965,0.0
51988.0,STARLINK-3640,PAYLOAD,2023-05-31 00:35:13,15.08845996,9.15e-05,53.2169,269.6377,98.5019,261.6077,2.4103e-05,9.6e-07,0.0,0 STARLINK-3640,1 51988U 22025AJ  23151.02446469  .00000096  00000-0  24103-4 0  9998,2 51988  53.2169 269.6377 0000915  98.5019 261.6077 15.08845996 69140,6917.862,95.437,540.36,539.094,0.0
51988.0,STARLINK-3640,PAYLOAD,2023-05-31 08:32:10,15.08838995,0.0001317,53.2182,268.1555,123.0453,237.0666,1.1125e-05,-1.11e-06,0.0,0 STARLINK-3640,1 51988U 22025AJ  23151.35567143 -.00000111  00000-0  11125-4 0  9996,2 51988  53.2182 268.1555 0001317 123.0453 237.0666 15.08838995 69197,6917.883,95.438,540.66,538.837,0.0
51988.0,STARLINK-3640,PAYLOAD,2023-05-31 13:18:19,15.08840347,0.0001107,53.2182,267.2638,105.4951,254.6163,3.5955e-05,2.84e-06,0.0,0 STARLINK-3640,1 51988U 22025AJ  23151.55439051  .00000284  00000-0  35955-4 0  9991,2 51988  53.2182 267.2638 0001107 105.4951 254.6163 15.08840347 68115,6917.879,95.438,540.51,538.979,0.0
